{"type": "FeatureCollection", "features": [ {"type": "Feature", "properties": {"norad_id": 29998, "name": "FENGYUN 1C DEB", "group": "fengyun-1c-debris", "lat": 57.526157136245295, "lon": -130.26631255530302, "alt_km": 793.8865224194806, "timestamp": "2025-12-01T03:58:50.087019+00:00", "meta": {"OBJECT_NAME": "FENGYUN 1C DEB", "OBJECT_ID": "1999-025LY", "EPOCH": "2025-11-30T10:36:16.697952", "MEAN_MOTION": 14.28462524, "ECCENTRICITY": 0.00046489, "INCLINATION": 99.3079, "RA_OF_ASC_NODE": 34.0289, "ARG_OF_PERICENTER": 341.808, "MEAN_ANOMALY": 18.2932, "EPHEMERIS_TYPE": 0, "CLASSIFICATION_TYPE": "U", "NORAD_CAT_ID": 29998, "ELEMENT_SET_NO": 999, "REV_AT_EPOCH": 97699, "BSTAR": 0.0009007933, "MEAN_MOTION_DOT": 2.206e-05, "MEAN_MOTION_DDOT": 0, "GROUP": "fengyun-1c-debris"}, "tle": {"line1": "1 29998U 99025LY  25334.44185993  .00002206  00000+0  90079-3 0  9999", "line2": "2 29998  99.3079  34.0289 0004648 341.8080  18.2932 14.28462524976991"}}, "geometry": {"type": "Point", "coordinates": [-130.26631255530302, 57.526157136245295]}}, {"type": "Feature", "properties": {"norad_id": 29999, "name": "FENGYUN 1C DEB", "group": "fengyun-1c-debris", "lat": -48.704520382872275, "lon": 129.88672263086815, "alt_km": 781.6529091461389, "timestamp": "2025-12-01T03:58:50.087030+00:00", "meta": {"OBJECT_NAME": "FENGYUN 1C DEB", "OBJECT_ID": "1999-025LZ", "EPOCH": "2025-11-30T19:02:00.255264", "MEAN_MOTION": 14.20108803, "ECCENTRICITY": 0.0189072, "INCLINATION": 98.5755, "RA_OF_ASC_NODE": 319.4169, "ARG_OF_PERICENTER": 161.0354, "MEAN_ANOMALY": 321.4964, "EPHEMERIS_TYPE": 0, "CLASSIFICATION_TYPE": "U", "NORAD_CAT_ID": 29999, "ELEMENT_SET_NO": 999, "REV_AT_EPOCH": 97554, "BSTAR": 0.00025585, "MEAN_MOTION_DOT": 6.09e-06, "MEAN_MOTION_DDOT": 0, "GROUP": "fengyun-1c-debris"}, "tle": {"line1": "1 29999U 99025LZ  25334.79305851  .00000609  00000+0  25585-3 0  9990", "line2": "2 29999  98.5755 319.4169 0189072 161.0354 321.4964 14.20108803975545"}}, "geometry": {"type": "Point", "coordinates": [129.88672263086815, -48.704520382872275]}}, {"type": "Feature", "properties": {"norad_id": 30001, "name": "FENGYUN 1C DEB", "group": "fengyun-1c-debris", "lat": 46.57947273112584, "lon": -120.68984073228194, "alt_km": 731.7966210743589, "timestamp": "2025-12-01T03:58:50.087041+00:00", "meta": {"OBJECT_NAME": "FENGYUN 1C DEB", "OBJECT_ID": "1999-025MA", "EPOCH": "2025-11-30T16:23:37.869216", "MEAN_MOTION": 14.38268041, "ECCENTRICITY": 0.0039585, "INCLINATION": 98.9604, "RA_OF_ASC_NODE": 49.2092, "ARG_OF_PERICENTER": 133.5848, "MEAN_ANOMALY": 20.6956, "EPHEMERIS_TYPE": 0, "CLASSIFICATION_TYPE": "U", "NORAD_CAT_ID": 30001, "ELEMENT_SET_NO": 999, "REV_AT_EPOCH": 97258, "BSTAR": 0.0027839, "MEAN_MOTION_DOT": 8.506e-05, "MEAN_MOTION_DDOT": 0, "GROUP": "fengyun-1c-debris"}, "tle": {"line1": "1 30001U 99025MA  25334.68307719  .00008506  00000+0  27839-2 0  9996", "line2": "2 30001  98.9604  49.2092 0039585 133.5848  20.6956 14.38268041972586"}}, "geometry": {"type": "Point", "coordinates": [-120.68984073228194, 46.57947273112584]}}, {"type": "Feature", "properties": {"norad_id": 30003, "name": "FENGYUN 1C DEB", "group": "fengyun-1c-debris", "lat": -22.550832608381725, "lon": -46.264263349324686, "alt_km": 1053.3482170258003, "timestamp": "2025-12-01T03:58:50.087052+00:00", "meta": {"OBJECT_NAME": "FENGYUN 1C DEB", "OBJECT_ID": "1999-025MC", "EPOCH": "2025-11-30T16:49:27.999264", "MEAN_MOTION": 13.85611542, "ECCENTRICITY": 0.0143078, "INCLINATION": 99.5757, "RA_OF_ASC_NODE": 309.2414, "ARG_OF_PERICENTER": 151.6769, "MEAN_ANOMALY": 28.2608, "EPHEMERIS_TYPE": 0, "CLASSIFICATION_TYPE": "U", "NORAD_CAT_ID": 30003, "ELEMENT_SET_NO": 999, "REV_AT_EPOCH": 95321, "BSTAR": 0.00033857, "MEAN_MOTION_DOT": 3.73e-06, "MEAN_MOTION_DDOT": 0, "GROUP": "fengyun-1c-debris"}, "tle": {"line1": "1 30003U 99025MC  25334.70101851  .00000373  00000+0  33857-3 0  9992", "line2": "2 30003  99.5757 309.2414 0143078 151.6769  28.2608 13.85611542953213"}}, "geometry": {"type": "Point", "coordinates": [-46.264263349324686, -22.550832608381725]}}, {"type": "Feature", "properties": {"norad_id": 30004, "name": "FENGYUN 1C DEB", "group": "fengyun-1c-debris", "lat": -52.911313572806215, "lon": 168.2693375403239, "alt_km": 832.433774376449, "timestamp": "2025-12-01T03:58:50.087063+00:00", "meta": {"OBJECT_NAME": "FENGYUN 1C DEB", "OBJECT_ID": "1999-025MD", "EPOCH": "2025-11-30T18:09:39.388032", "MEAN_MOTION": 14.17006633, "ECCENTRICITY": 0.0038883, "INCLINATION": 99.224, "RA_OF_ASC_NODE": 155.4327, "ARG_OF_PERICENTER": 16.6802, "MEAN_ANOMALY": 3.8738, "EPHEMERIS_TYPE": 0, "CLASSIFICATION_TYPE": "U", "NORAD_CAT_ID": 30004, "ELEMENT_SET_NO": 999, "REV_AT_EPOCH": 97137, "BSTAR": 0.00068934, "MEAN_MOTION_DOT": 1.348e-05, "MEAN_MOTION_DDOT": 0, "GROUP": "fengyun-1c-debris"}, "tle": {"line1": "1 30004U 99025MD  25334.75670588  .00001348  00000+0  68934-3 0  9993", "line2": "2 30004  99.2240 155.4327 0038883  16.6802   3.8738 14.17006633971372"}}, "geometry": {"type": "Point", "coordinates": [168.2693375403239, -52.911313572806215]}}, {"type": "Feature", "properties": {"norad_id": 30005, "name": "FENGYUN 1C DEB", "group": "fengyun-1c-debris", "lat": -43.12122303754162, "lon": -53.35346646024969, "alt_km": 1320.8617578304966, "timestamp": "2025-12-01T03:58:50.087074+00:00", "meta": {"OBJECT_NAME": "FENGYUN 1C DEB", "OBJECT_ID": "1999-025ME", "EPOCH": "2025-11-30T08:40:27.914016", "MEAN_MOTION": 13.52178403, "ECCENTRICITY": 0.03463575, "INCLINATION": 99.301, "RA_OF_ASC_NODE": 297.0633, "ARG_OF_PERICENTER": 124.6693, "MEAN_ANOMALY": 238.7604, "EPHEMERIS_TYPE": 0, "CLASSIFICATION_TYPE": "U", "NORAD_CAT_ID": 30005, "ELEMENT_SET_NO": 999, "REV_AT_EPOCH": 92779, "BSTAR": 0.0010687291, "MEAN_MOTION_DOT": 9.88e-06, "MEAN_MOTION_DDOT": 0, "GROUP": "fengyun-1c-debris"}, "tle": {"line1": "1 30005U 99025ME  25334.36143419  .00000988  00000+0  10687-2 0  9999", "line2": "2 30005  99.3010 297.0633 0346357 124.6693 238.7604 13.52178403927799"}}, "geometry": {"type": "Point", "coordinates": [-53.35346646024969, -43.12122303754162]}}, {"type": "Feature", "properties": {"norad_id": 30007, "name": "FENGYUN 1C DEB", "group": "fengyun-1c-debris", "lat": 17.26624683310088, "lon": -126.89991850484708, "alt_km": 766.9114624500126, "timestamp": "2025-12-01T03:58:50.087096+00:00", "meta": {"OBJECT_NAME": "FENGYUN 1C DEB", "OBJECT_ID": "1999-025MG", "EPOCH": "2025-11-30T16:15:17.976960", "MEAN_MOTION": 14.25253106, "ECCENTRICITY": 0.0065591, "INCLINATION": 99.1774, "RA_OF_ASC_NODE": 235.4695, "ARG_OF_PERICENTER": 48.4323, "MEAN_ANOMALY": 344.1489, "EPHEMERIS_TYPE": 0, "CLASSIFICATION_TYPE": "U", "NORAD_CAT_ID": 30007, "ELEMENT_SET_NO": 999, "REV_AT_EPOCH": 97184, "BSTAR": 0.0017888, "MEAN_MOTION_DOT": 4.257e-05, "MEAN_MOTION_DDOT": 0, "GROUP": "fengyun-1c-debris"}, "tle": {"line1": "1 30007U 99025MG  25334.67729140  .00004257  00000+0  17888-2 0  9999", "line2": "2 30007  99.1774 235.4695 0065591  48.4323 344.1489 14.25253106971844"}}, "geometry": {"type": "Point", "coordinates": [-126.89991850484708, 17.26624683310088]}}, {"type": "Feature", "properties": {"norad_id": 30008, "name": "FENGYUN 1C DEB", "group": "fengyun-1c-debris", "lat": 18.134803296217754, "lon": -73.17736454808377, "alt_km": 697.9864888472666, "timestamp": "2025-12-01T03:58:50.087110+00:00", "meta": {"OBJECT_NAME": "FENGYUN 1C DEB", "OBJECT_ID": "1999-025MH", "EPOCH": "2025-11-30T18:22:15.623040", "MEAN_MOTION": 14.65859187, "ECCENTRICITY": 0.0038561, "INCLINATION": 99.3675, "RA_OF_ASC_NODE": 289.4658, "ARG_OF_PERICENTER": 230.3188, "MEAN_ANOMALY": 196.2212, "EPHEMERIS_TYPE": 0, "CLASSIFICATION_TYPE": "U", "NORAD_CAT_ID": 30008, "ELEMENT_SET_NO": 999, "REV_AT_EPOCH": 98884, "BSTAR": 0.0026227, "MEAN_MOTION_DOT": 0.0001445, "MEAN_MOTION_DDOT": 0, "GROUP": "fengyun-1c-debris"}, "tle": {"line1": "1 30008U 99025MH  25334.76545860  .00014450  00000+0  26227-2 0  9998", "line2": "2 30008  99.3675 289.4658 0038561 230.3188 196.2212 14.65859187988846"}}, "geometry": {"type": "Point", "coordinates": [-73.17736454808377, 18.134803296217754]}}, {"type": "Feature", "properties": {"norad_id": 30009, "name": "FENGYUN 1C DEB", "group": "fengyun-1c-debris", "lat": 69.91565620212937, "lon": -124.09867117298187, "alt_km": 877.6958052446553, "timestamp": "2025-12-01T03:58:50.087121+00:00", "meta": {"OBJECT_NAME": "FENGYUN 1C DEB", "OBJECT_ID": "1999-025MJ", "EPOCH": "2025-11-30T17:12:58.709088", "MEAN_MOTION": 14.04815629, "ECCENTRICITY": 0.0063908, "INCLINATION": 99.0158, "RA_OF_ASC_NODE": 29.7203, "ARG_OF_PERICENTER": 9.7577, "MEAN_ANOMALY": 350.4815, "EPHEMERIS_TYPE": 0, "CLASSIFICATION_TYPE": "U", "NORAD_CAT_ID": 30009, "ELEMENT_SET_NO": 999, "REV_AT_EPOCH": 96314, "BSTAR": 0.00061711, "MEAN_MOTION_DOT": 9.64e-06, "MEAN_MOTION_DDOT": 0, "GROUP": "fengyun-1c-debris"}, "tle": {"line1": "1 30009U 99025MJ  25334.71734617  .00000964  00000+0  61711-3 0  9997", "line2": "2 30009  99.0158  29.7203 0063908   9.7577 350.4815 14.04815629963149"}}, "geometry": {"type": "Point", "coordinates": [-124.09867117298187, 69.91565620212937]}}]}